UNKNOWN                 
1 82961U          25314.69446280  .00010148  00000+0  16633-1 0  9993
2 82961  99.9226 110.8007 0380262  83.0194 281.4010 13.22500906551474
UNKNOWN                 
1 82965U          25301.65945996  .00001337  00000+0  18600-2 0  9994
2 82965 100.1169  19.7271 0002369 200.4397 159.6647 13.59868042518325
UNKNOWN                 
1 83903U          25315.57385418  .00000015  00000+0  00000+0 0  9994
2 83903   6.2639 290.8945 0124860 250.4367 308.9362  0.99112477 43352
UNKNOWN                 
1 83934U          25308.90903197 -.00000304  00000+0  00000+0 0  9999
2 83934   5.8710 297.7524 0234954 271.1488 248.3162  1.02664883 44893
UNKNOWN                 
1 83970U          25315.09409336  .00004920  00000+0  54789-2 0  9996
2 83970  18.2702 255.2371 5071975  78.0896 332.4400  5.31557455194523
UNKNOWN                 
1 84006U          25311.04186501 -.00000040  00000+0  00000+0 0  9998
2 84006  22.5165 184.7700 6137799  48.2545 350.0846  2.16233097 83457
UNKNOWN                 
1 84188U          25314.97898134  .00243409  00000+0  23796+0 0  9990
2 84188  65.1415 284.2946 3879387  22.1184 350.9203  7.27983285 38915
UNKNOWN                 
1 84232U          25315.28415527  .00008128  00000+0  66056-2 0  9992
2 84232  20.3890 292.2903 6566954  31.8689 354.8228  3.16606943103695
UNKNOWN                 
1 84236U          25312.71188957  .00000472  00000+0  34603-2 0  9992
2 84236   9.4478 350.1824 6894804  64.1895 349.7239  2.62485704113080
UNKNOWN                 
1 84292U          25315.04373502  .00004116  00000+0  23396-2 0  9991
2 84292  23.8068 204.2261 4565846 163.6286 218.2411  6.21222997226099
UNKNOWN                 
1 84406U          25312.19766933  .00000706  00000+0  39163-2 0  9995
2 84406 101.7188  95.8978 0043232 111.7327  68.2160 12.67264022 44915
UNKNOWN                 
1 84407U          25315.35182990 -.00000160  00000+0  24596-1 0  9990
2 84407  19.5259 331.7257 7202083  45.0125 354.6079  2.05755909 75225
UNKNOWN                 
1 84575U          25315.01635652 -.00000066  00000+0  39869-2 0  9992
2 84575  18.1415 168.8307 7101044   3.3788 359.7560  2.19885329 64765
UNKNOWN                 
1 84932U          25315.52594666  .00001500  00000+0  12149-1 0  9998
2 84932   2.1520 263.8185 6571115  18.8816 102.9970  2.99884202130847
UNKNOWN                 
1 85004U          25315.40445472  .00002167  00000+0  67956-3 0  9994
2 85004  98.4178 286.9198 0045894 256.7269 256.1837 14.40975520626380
UNKNOWN                 
1 85010U          25310.39877035  .00001418  00000+0  15285-2 0  9993
2 85010  99.2510 173.4238 0027691 349.4301 191.1957 13.74928187598925
UNKNOWN                 
1 85015U          25312.15397752  .00000889  00000+0  18216-3 0  9996
2 85015  74.0472 104.3859 0015035  15.5071 344.6553 14.62220364637554
UNKNOWN                 
1 85023U          25315.51915880  .00041177  00000+0  65565-2 0  9999
2 85023  99.8541 324.4142 0003672  58.6189  92.6456 14.71821965624234
UNKNOWN                 
1 85027U          25312.37507762  .00000191  00000+0  25434-3 0  9993
2 85027  66.0407 185.6609 0180397 208.6061 150.5015 13.74220059599893
UNKNOWN                 
1 85047U          25315.36337177  .00021600  00000+0  36292-1 0  9998
2 85047 102.2381 274.2122 0123947  67.1443 294.2711 13.42828659572440
UNKNOWN                 
1 85061U          25307.42455669  .00003695  00000+0  14673-1 0  9992
2 85061 102.3925 287.6544 0278636 271.8072 246.1173 12.76679422550762
UNKNOWN                 
1 85100U          25312.20175984  .00000588  00000+0  19246-3 0  9998
2 85100  74.0443 286.6340 0012139 170.1669 204.0917 14.40664125628375
UNKNOWN                 
1 85106U          25315.51082471  .00000970  00000+0  11065-2 0  9994
2 85106 100.0561  54.8369 0010107  95.1939 326.9683 13.72838447598786
UNKNOWN                 
1 85151U          25313.11336274  .00029337  00000+0  42074-2 0  9993
2 85151  98.4030 175.7324 0007851 260.7852  99.2468 14.76427018474560
UNKNOWN                 
1 85210U          25315.34241259  .00001208  00000+0  11796-2 0  9998
2 85210  99.8556  95.4789 0216948  34.7861 355.7077 13.71460842597855
UNKNOWN                 
1 85217U          25314.06716565  .00005020  00000+0  13354-2 0  9998
2 85217  98.0312  50.6080 0208780 226.8333 131.5242 14.36798751623166
UNKNOWN                 
1 85237U          25301.49798667  .00004906  00000+0  10732-2 0  9995
2 85237  65.5350 333.5415 0511538  48.4748 315.9051 13.99983230602013
UNKNOWN                 
1 85238U          25315.57764554  .00000123  00000+0  13709-3 0  9993
2 85238  99.0575 245.6558 0062464 285.3325 249.0178 13.88333776606516
UNKNOWN                 
1 85246U          25314.73492090  .00002945  00000+0  10599-2 0  9999
2 85246  97.9880 321.2414 0224574  38.6538 323.0478 14.21303486618523
UNKNOWN                 
1 85373U          25313.31905184  .00003392  00000+0  23286-2 0  9990
2 85373 100.4262 344.7891 0048879 324.7628  93.9183 13.99766882607451
UNKNOWN                 
1 87014U          25315.41741934  .00003854  00000+0  59179-2 0  9991
2 87014 100.4970 277.9631 0056206 319.2508 195.9790 13.51648095586680
UNKNOWN                 
1 87042U          25314.39507872  .00001315  00000+0  80551-3 0  9998
2 87042  98.7182 358.7706 0043809 185.1583 174.9140 14.07024644549410
UNKNOWN                 
1 87051U          25315.31833219  .00002076  00000+0  72615-3 0  9995
2 87051  65.7294 329.2230 0717549 155.7728 207.8908 13.45738773584352
UNKNOWN                 
1 87054U          25314.88887011  .00002670  00000+0  15178-2 0  9998
2 87054 100.0919 190.4084 0013691  67.0431 293.2179 14.10866736611837
UNKNOWN                 
1 87071U          25314.54321055  .00009555  00000+0  33881-2 0  9991
2 87071  61.2229   7.4906 0483186 221.3442 135.0059 13.85157644598022
UNKNOWN                 
1 87129U          25315.21241421  .00000265  00000+0  22443-2 0  9999
2 87129 102.2636  45.8017 0033596 147.4225 212.8920 12.42799446542750
UNKNOWN                 
1 87159U          25310.07296941  .00001307  00000+0  15248-2 0  9991
2 87159  90.3486  68.0777 0103684   6.5928 353.6568 13.65936087551688
UNKNOWN                 
1 87163U          25314.00560262  .00002738  00000+0  85316-3 0  9996
2 87163  65.6015 317.0189 0642165  79.3399 287.9267 13.63635228573053
UNKNOWN                 
1 87164U          25315.55814493  .00008016  00000+0  16555-2 0  9999
2 87164  65.2039  58.2351 0096818  69.6885 291.4586 14.57967224631227
UNKNOWN                 
1 87204U          25315.06789377  .00003388  00000+0  13373-2 0  9994
2 87204  98.5372 176.5264 0046795  56.8502 303.7157 14.29093447620912
UNKNOWN                 
1 87211U          25308.26433275  .00004197  00000+0  11708-2 0  9998
2 87211  99.0853 305.3379 0052646 274.2781 100.6430 14.46054155702210
UNKNOWN                 
1 87214U          25314.94375227  .00002085  00000+0  18811-2 0  9991
2 87214 100.3302 310.4932 0075267 334.3771  25.3658 13.83996397595848
UNKNOWN                 
1 87237U          25315.11366961  .00000560  00000+0  45577-3 0  9997
2 87237  99.2635  10.6614 0103205  10.2212  20.4396 13.91711376607365
UNKNOWN                 
1 87239U          25314.41231714  .00016243  00000+0  40897-2 0  9992
2 87239  82.8741 110.3022 0020040 146.3826 213.8648 14.50963405623185
UNKNOWN                 
1 87245U          25313.95377733  .00009033  00000+0  18486-2 0  9997
2 87245  65.6385 135.4730 0435975 137.5606  13.5968 14.15148537609562
UNKNOWN                 
1 87271U          25315.52352708  .00007266  00000+0  13690-2 0  9994
2 87271  65.7563 320.1655 0420504  90.1602 274.7660 14.21053595607936
UNKNOWN                 
1 87280U          25313.74966117  .00000628  00000+0  10847-2 0  9997
2 87280  64.6158 316.9661 0131551 266.9194  91.6785 13.48511807529406
UNKNOWN                 
1 87293U          25314.50093726  .00016614  00000+0  33376-2 0  9997
2 87293  65.8986 230.8839 0425467  17.1679 344.3299 14.17349085609422
UNKNOWN                 
1 87300U          25315.40493570  .00002845  00000+0  19869-2 0  9999
2 87300 100.0845 294.7286 0030257  14.6882 345.5150 13.99272348608737
UNKNOWN                 
1 87304U          25309.55294348  .00002074  00000+0  31091-3 0  9990
2 87304  74.0224  33.7388 0018325   8.8332 351.3161 14.75207174640994
UNKNOWN                 
1 87320U          25314.98037735  .00002748  00000+0  17485-2 0  9994
2 87320  66.5922 160.0177 0415008  75.4461 289.2248 13.69903770589393
UNKNOWN                 
1 87334U          25315.38544415  .00035750  00000+0  21583-1 0  9994
2 87334  90.0038 271.7166 0080644 346.8231  13.0842 14.04750324382243
UNKNOWN                 
1 87335U          25315.12446891  .00032267  00000+0  19139-1 0  9990
2 87335  89.9875 268.0794 0091396 327.4264  32.1299 14.05283649382535
UNKNOWN                 
1 87405U          25315.32593779  .00004290  00000+0  30697-2 0  9996
2 87405  82.7487  84.8946 0058319  61.6647 299.0385 13.96141431606772
UNKNOWN                 
1 87426U          25313.60022991  .00007056  00000+0  27449-2 0  9995
2 87426  65.7846  64.3620 0066897 305.6068  74.0481 14.29113576617850
UNKNOWN                 
1 87448U          25314.99606912  .00002383  00000+0  19286-2 0  9991
2 87448 100.4530 157.6025 0064392 286.9574  72.4530 13.90459596604829
UNKNOWN                 
1 87456U          25313.03864794  .00012421  00000+0  18871-2 0  9991
2 87456  65.7822 180.3966 0509449  22.4080 339.8411 14.12944038606739
UNKNOWN                 
1 87517U          25314.63790603  .00011326  00000+0  31484-2 0  9991
2 87517  65.8252 311.0221 0674938 321.6945 142.3780 13.60811429588545
UNKNOWN                 
1 87541U          25300.37947772  .00000325  00000+0  71494-3 0  9998
2 87541  99.7065 156.6181 0060633  15.1144 160.1687 13.35560083575847
